STARLINK-31690          
1 59581U 24076T   24120.83335648 -.01047418  32899-3 -30375-2 0  9997
2 59581  43.0019 287.1367 0001490 261.0060 339.4338 15.92035395  2186
STARLINK-31701          
1 59582U 24076U   24120.83335648 -.01074004  34505-3 -30840-2 0  9992
2 59582  43.0020 287.1299 0001678 270.1770 332.9793 15.92228597  2013
STARLINK-31697          
1 59583U 24076V   24120.83335648 -.01073750  34462-3 -30969-2 0  9994
2 59583  43.0019 287.1333 0001226 266.4132 335.4543 15.92145256  2011
STARLINK-31662          
1 59584U 24076W   24120.83335648 -.01083876  35109-3 -31021-2 0  9994
2 59584  43.0020 287.1276 0001493 258.0334 346.1059 15.92293911  2177
STARLINK-31702          
1 59585U 24076X   24120.83335648 -.01078137  34798-3 -30724-2 0  9991
2 59585  43.0021 287.1243 0001601 263.8439 341.6064 15.92375096  2175
STARLINK-31704          
1 59586U 24076Y   24120.83335648 -.01098935  36065-3 -31180-2 0  9996
2 59586  43.0021 287.1213 0001216 262.3042 344.3404 15.92463171  2179
NEONSAT-1               
1 59587U 24077A   24120.90808800  .00009347  00000+0  48794-3 0  9993
2 59587  97.4125 201.5421 0014616 254.9395 105.0220 15.16044533   905
ACS3                    
1 59588U 24077B   24120.81728331  .00000021  00000+0  58545-4 0  9990
2 59588  97.4074 200.2286 0019393 223.7822 136.1792 13.67673731   798
ELECTRON KICK STAGE R/B 
1 59590U 24077D   24120.84799140  .00007679  00000+0  82335-3 0  9991
2 59590  97.3947 200.8751 0387084 186.5429 173.0630 14.46722115   842
SHENZHOU-18 (SZ-18)     
1 59591U 24078A   24120.16613569  .00037603  00000+0  40960-3 0  9996
2 59591  41.4691  22.5544 0003809 269.3856  90.6547 15.62659229171420
CZ-2F R/B               
1 59592U 24078B   24119.16638338  .01137775  76046-5  71178-3 0  9992
2 59592  41.4690  27.6703 0092699 145.6515   4.5704 16.07508991   425
CZ-2F DEB               
1 59593U 24078C   24117.16437429  .06643541  69424-5  71055-2 0  9992
2 59593  41.6118  40.5394 0251395 137.5527 224.6445 15.69435837   103
1998-067WP              
1 59596U 98067WP  24120.92286584  .00058288  00000+0  89774-3 0  9995
2 59596  51.6367 194.5655 0004796  44.2169 315.9204 15.53609789  1830
1998-067WQ              
1 59597U 98067WQ  24120.92281116  .00060425  00000+0  92928-3 0  9993
2 59597  51.6371 194.5652 0004815  44.2093 315.9281 15.53635003  1801
2024-079A               
1 59598U 24079A   24121.15432375  .00000072  00000+0  00000+0 0  9995
2 59598  54.6612 122.8360 0010059 265.9701 125.0259  1.72809836    30
2024-079B               
1 59599U 24079B   24120.79682044  .00000071  00000+0  00000+0 0  9994
2 59599  54.6582 122.8333 0001345 283.1236 246.6193  1.73013558    70
2024-079C               
1 59600U 24079C   24120.79717973  .00000071  00000+0  10000-3 0  9992
2 59600  54.6536 122.8420 0005449 324.3992 205.6867  1.73020358    85
NOAA 1                  
1 04793U 70106A   24120.93089447 -.00000036  00000+0  46119-4 0  9994
2 04793 101.4499 174.7260 0031988  72.0453 100.2889 12.54026793443132
NOAA 2 (ITOS-D)         
1 06235U 72082A   24120.94355065 -.00000019  00000+0  17266-3 0  9996
2 06235 102.0156 119.3612 0003823 207.5118 207.1916 12.53178596357464
NOAA 3                  
1 06920U 73086A   24120.96999579 -.00000024  00000+0  16916-3 0  9995
2 06920 102.2759 116.5439 0006905 112.9852 303.2921 12.40366585285412
NOAA 4                  
1 07529U 74089A   24120.92000737 -.00000030  00000+0  10503-3 0  9993
2 07529 101.9870 114.7398 0008586 239.1627 174.7563 12.53179089262032
NOAA 5                  
1 09057U 76077A   24120.93446384 -.00000020  00000+0  19416-3 0  9994
2 09057 102.2046  94.4521 0009534 326.9117  42.6898 12.37798865158189
TIROS N                 
1 11060U 78096A   24120.97166199  .00000293  00000+0  16125-3 0  9996
2 11060  98.5366 163.1564 0009953 341.5954  18.4861 14.18786846568370
NOAA 6                  
1 11416U 79057A   24120.91532023  .00000619  00000+0  23545-3 0  9992
2 11416  98.6324 142.1912 0010977  48.3887 311.8237 14.34459731339336
NOAA 7                  
1 12553U 81059A   24120.91214223  .00000144  00000+0  93276-4 0  9991
2 12553  98.8970 180.1812 0010933 337.4601  22.6092 14.17512776214470
NOAA 8                  
1 13923U 83022A   24120.97879542  .00000348  00000+0  15451-3 0  9996
2 13923  98.7305 120.8569 0015303  18.6685 341.5055 14.29214370140145
NOAA 9                  
1 15427U 84123A   24120.93092458  .00000288  00000+0  16794-3 0  9993
2 15427  99.1180 117.1872 0015382  36.4345  20.8532 14.16566309 33210
NOAA 10                 
1 16969U 86073A   24120.94902681  .00000341  00000+0  15308-3 0  9990
2 16969  98.6392 107.3417 0013263 111.3556 303.3854 14.28587980958268
NOAA 11                 
1 19531U 88089A   24120.86842652  .00000190  00000+0  11815-3 0  9990
2 19531  98.5145  85.5750 0011511  19.8459 340.3161 14.15519455837352
NOAA 12                 
1 21263U 91032A   24120.94216801  .00000251  00000+0  12237-3 0  9994
2 21263  98.5568 113.1514 0014458 139.1924 221.0342 14.26289422714000
NOAA 13                 
1 22739U 93050A   24121.14229208  .00000261  00000+0  16195-3 0  9991
2 22739  98.6024  80.4834 0009269 183.7603 176.3502 14.13189201583702
NOAA 14                 
1 23455U 94089A   24121.19853600  .00000142  00000+0  95369-4 0  9993
2 23455  98.4323 119.8669 0009961 154.0312 206.1364 14.14379654513455
NOAA 15                 
1 25338U 98030A   24121.19244557  .00000350  00000+0  16301-3 0  9999
2 25338  98.5729 149.3136 0011563 104.3628 255.8837 14.26553600350592
NOAA 16                 
1 26536U 00055A   24120.88034794  .00000170  00000+0  11224-3 0  9994
2 26536  98.5360 162.6762 0010760  20.9196 339.2416 14.13562044513755
NOAA 17                 
1 27453U 02032A   24120.92050285  .00000384  00000+0  18097-3 0  9990
2 27453  98.7595  71.5487 0012892  88.7391 271.5266 14.25549456136077
NOAA 18                 
1 28654U 05018A   24121.20546218  .00000340  00000+0  20520-3 0  9995
2 28654  98.8747 198.5679 0014122 194.9036 165.1721 14.13185441976486
NOAA 19                 
1 33591U 09005A   24121.15018511  .00000314  00000+0  19284-3 0  9991
2 33591  99.0510 176.4334 0014772  70.1268 290.1494 14.12984907784845
SUOMI NPP               
1 37849U 11061A   24121.18410804  .00000184  00000+0  10773-3 0  9999
2 37849  98.7196  59.8905 0001676  74.6121 285.5240 14.19557372648053
NOAA 20 (JPSS-1)        
1 43013U 17073A   24121.13177581  .00000182  00000+0  10682-3 0  9992
2 43013  98.7038  59.8640 0001504  44.9473 315.1825 14.19572696334084
NOAA 21 (JPSS-2)        
1 54234U 22150A   24120.88355659  .00000225  00000+0  12766-3 0  9999
2 54234  98.7492  59.3498 0000688  70.7920 289.3331 14.19557967 76123
ISS (ZARYA)             
1 25544U 98067A   24121.19390232  .00015142  00000+0  26557-3 0  9999
2 25544  51.6366 193.3734 0003630 123.6896 236.4439 15.50761099451101
CSS (TIANHE)            
1 48274U 21035A   24120.99694755  .00033176  00000+0  36118-3 0  9990
2 48274  41.4690  17.4841 0003847 271.7494  88.2905 15.62718935171550
ISS (NAUKA)             
1 49044U 21066A   24120.96661619  .00024915  00000+0  43122-3 0  9994
2 49044  51.6391 194.4959 0003387 121.9323  48.5079 15.50771109156620
FREGAT DEB              
1 49271U 11037PF  24120.19744791  .00011836  00000+0  29066-1 0  9998
2 49271  51.6606 128.2808 0960234  17.7809 345.4335 12.13853664129248
CSS (WENTIAN)           
1 53239U 22085A   24120.95364696  .00039322  00000+0  42703-3 0  9993
2 53239  41.4706  17.7446 0003979 272.1881 203.9356 15.62720310100851
CSS (MENGTIAN)          
1 54216U 22143A   24120.95364696  .00039322  00000+0  42703-3 0  9994
2 54216  41.4706  17.7446 0003979 272.1881 203.9356 15.62720310 85332
ISS DEB [SPX-28 IPA FSE]
1 57212U 98067VP  24120.47558611  .00273552  40652-4  66636-3 0  9998
2 57212  51.6213 162.8502 0006451  13.3784 346.7394 15.95706682 48381
SHENZHOU-17 (SZ-17)     
1 58146U 23164A   24120.95364696  .00039322  00000+0  42703-3 0  9994
2 58146  41.4706  17.7446 0003979 272.1881 203.9356 15.62720310 29123
ISS DEB                 
1 58229U 98067WC  24120.89646589  .00126233  00000+0  75725-3 0  9995
2 58229  51.6288 180.8719 0006721   5.6976 354.4100 15.76860379 28022
PROGRESS-MS 25          
1 58460U 23184A   24120.96661619  .00024915  00000+0  43122-3 0  9999
2 58460  51.6391 194.4959 0003387 121.9323  48.5079 15.50771109 22927
BEAK                    
1 58612U 98067WD  24121.20931153  .00125626  00000+0  84897-3 0  9996
2 58612  51.6311 182.9817 0005861  12.4738 347.6405 15.74141665 20979
TIANZHOU-7              
1 58811U 24013A   24120.95364696  .00039322  00000+0  42703-3 0  9997
2 58811  41.4706  17.7446 0003979 272.1881 203.9356 15.62720310171423
CYGNUS NG-20            
1 58898U 24021A   24120.96661619  .00024915  00000+0  43122-3 0  9995
2 58898  51.6391 194.4959 0003387 121.9323  48.5079 15.50771109 13629
PROGRESS-MS 26          
1 58961U 24029A   24120.96661619  .00024915  00000+0  43122-3 0  9994
2 58961  51.6391 194.4959 0003387 121.9323  48.5079 15.50771109450221
CREW DRAGON 8           
1 59097U 24042A   24120.96661619  .00024915  00000+0  43122-3 0  9990
2 59097  51.6391 194.4959 0003387 121.9323  48.5079 15.50771109450222
DRAGON CRS-30           
1 59287U 24054A   24120.96661619  .00024915  00000+0  43122-3 0  9994
2 59287  51.6391 194.4959 0003387 121.9323  48.5079 15.50771109  6017
SOYUZ-MS 25             
1 59294U 24055A   24120.96661619  .00024915  00000+0  43122-3 0  9993
2 59294  51.6391 194.4959 0003387 121.9323  48.5079 15.50771109  5429
MICROORBITER-1          
1 59483U 98067WF  24121.23157732  .00067259  00000+0  99052-3 0  9995
2 59483  51.6348 192.8762 0002634  78.3259 281.8028 15.54786788  2990
